{
  "type": "FeatureCollection",
  "features": [
    {
      "type": "Feature",
      "properties": {
        "norad_id": 30469,
        "name": "FENGYUN 1C DEB",
        "group": "fengyun-1c-debris",
        "lat": 0.27479811251867486,
        "lon": -162.482321152565,
        "alt_km": 1022.1128826715094,
        "timestamp": "2025-12-12T20:43:07.311655+00:00",
        "meta_object_name": "FENGYUN 1C DEB",
        "meta_object_id": "1999-025AGG",
        "meta_epoch": "2025-12-11T12:21:54.601920",
        "meta_mean_motion": 13.96505576,
        "meta_eccentricity": 0.01586158,
        "meta_inclination": 98.4773,
        "meta_ra_of_asc_node": 196.3159,
        "meta_arg_of_pericenter": 173.1335,
        "meta_mean_anomaly": 254.0777,
        "meta_ephemeris_type": 0,
        "meta_classification_type": "U",
        "meta_norad_cat_id": 30469,
        "meta_element_set_no": 999,
        "meta_rev_at_epoch": 95689,
        "meta_bstar": 0.0012421087,
        "meta_mean_motion_dot": 1.87e-05,
        "meta_mean_motion_ddot": 0,
        "tle_line1": "1 30469U 99025AGG 25345.51521530  .00001870  00000+0  12421-2 0  9995",
        "tle_line2": "2 30469  98.4773 196.3159 0158615 173.1335 254.0777 13.96505576956891"
      },
      "geometry": {
        "type": "Point",
        "coordinates": [
          -162.482321152565,
          0.27479811251867486
        ]
      }
    },
    {
      "type": "Feature",
      "properties": {
        "norad_id": 30471,
        "name": "FENGYUN 1C DEB",
        "group": "fengyun-1c-debris",
        "lat": 75.52280647283824,
        "lon": -67.39881419118899,
        "alt_km": 892.174573666317,
        "timestamp": "2025-12-12T20:43:07.311665+00:00",
        "meta_object_name": "FENGYUN 1C DEB",
        "meta_object_id": "1999-025AGJ",
        "meta_epoch": "2025-12-12T05:05:03.740640",
        "meta_mean_motion": 14.13621734,
        "meta_eccentricity": 0.00824457,
        "meta_inclination": 99.0536,
        "meta_ra_of_asc_node": 73.8052,
        "meta_arg_of_pericenter": 254.9583,
        "meta_mean_anomaly": 133.4865,
        "meta_ephemeris_type": 0,
        "meta_classification_type": "U",
        "meta_norad_cat_id": 30471,
        "meta_element_set_no": 999,
        "meta_rev_at_epoch": 96435,
        "meta_bstar": 0.0026675356,
        "meta_mean_motion_dot": 5.155e-05,
        "meta_mean_motion_ddot": 0,
        "tle_line1": "1 30471U 99025AGJ 25346.21184885  .00005155  00000+0  26675-2 0  9990",
        "tle_line2": "2 30471  99.0536  73.8052 0082445 254.9583 133.4865 14.13621734964352"
      },
      "geometry": {
        "type": "Point",
        "coordinates": [
          -67.39881419118899,
          75.52280647283824
        ]
      }
    },
    {
      "type": "Feature",
      "properties": {
        "norad_id": 30472,
        "name": "FENGYUN 1C DEB",
        "group": "fengyun-1c-debris",
        "lat": -46.21464639480722,
        "lon": -101.16499860176096,
        "alt_km": 742.9729746364947,
        "timestamp": "2025-12-12T20:43:07.311676+00:00",
        "meta_object_name": "FENGYUN 1C DEB",
        "meta_object_id": "1999-025AGK",
        "meta_epoch": "2025-12-12T06:44:07.574208",
        "meta_mean_motion": 14.53782285,
        "meta_eccentricity": 0.00383669,
        "meta_inclination": 98.6512,
        "meta_ra_of_asc_node": 87.3733,
        "meta_arg_of_pericenter": 80.9284,
        "meta_mean_anomaly": 338.1206,
        "meta_ephemeris_type": 0,
        "meta_classification_type": "U",
        "meta_norad_cat_id": 30472,
        "meta_element_set_no": 999,
        "meta_rev_at_epoch": 98034,
        "meta_bstar": 0.0036897604,
        "meta_mean_motion_dot": 0.00015617,
        "meta_mean_motion_ddot": 0,
        "tle_line1": "1 30472U 99025AGK 25346.28064322  .00015617  00000+0  36898-2 0  9993",
        "tle_line2": "2 30472  98.6512  87.3733 0038366  80.9284 338.1206 14.53782285980349"
      },
      "geometry": {
        "type": "Point",
        "coordinates": [
          -101.16499860176096,
          -46.21464639480722
        ]
      }
    },
    {
      "type": "Feature",
      "properties": {
        "norad_id": 30474,
        "name": "FENGYUN 1C DEB",
        "group": "fengyun-1c-debris",
        "lat": 79.59120441665435,
        "lon": -55.39836579996452,
        "alt_km": 758.9648288917542,
        "timestamp": "2025-12-12T20:43:07.311686+00:00",
        "meta_object_name": "FENGYUN 1C DEB",
        "meta_object_id": "1999-025AGM",
        "meta_epoch": "2025-12-11T04:26:26.176416",
        "meta_mean_motion": 14.3772546,
        "meta_eccentricity": 0.00228926,
        "meta_inclination": 98.9286,
        "meta_ra_of_asc_node": 64.0083,
        "meta_arg_of_pericenter": 8.5695,
        "meta_mean_anomaly": 45.0363,
        "meta_ephemeris_type": 0,
        "meta_classification_type": "U",
        "meta_norad_cat_id": 30474,
        "meta_element_set_no": 999,
        "meta_rev_at_epoch": 97371,
        "meta_bstar": 0.0033413377,
        "meta_mean_motion_dot": 0.00010048,
        "meta_mean_motion_ddot": 0,
        "tle_line1": "1 30474U 99025AGM 25345.18502519  .00010048  00000+0  33413-2 0  9991",
        "tle_line2": "2 30474  98.9286  64.0083 0022892   8.5695  45.0363 14.37725460973716"
      },
      "geometry": {
        "type": "Point",
        "coordinates": [
          -55.39836579996452,
          79.59120441665435
        ]
      }
    },
    {
      "type": "Feature",
      "properties": {
        "norad_id": 30475,
        "name": "FENGYUN 1C DEB",
        "group": "fengyun-1c-debris",
        "lat": 30.435479488218082,
        "lon": -146.4003303267903,
        "alt_km": 862.1522535214744,
        "timestamp": "2025-12-12T20:43:07.311696+00:00",
        "meta_object_name": "FENGYUN 1C DEB",
        "meta_object_id": "1999-025AGN",
        "meta_epoch": "2025-12-12T01:29:47.675040",
        "meta_mean_motion": 14.15676106,
        "meta_eccentricity": 0.00423545,
        "meta_inclination": 98.7879,
        "meta_ra_of_asc_node": 27.5956,
        "meta_arg_of_pericenter": 292.6673,
        "meta_mean_anomaly": 97.1399,
        "meta_ephemeris_type": 0,
        "meta_classification_type": "U",
        "meta_norad_cat_id": 30475,
        "meta_element_set_no": 999,
        "meta_rev_at_epoch": 96942,
        "meta_bstar": 0.0012328595,
        "meta_mean_motion_dot": 2.394e-05,
        "meta_mean_motion_ddot": 0,
        "tle_line1": "1 30475U 99025AGN 25346.06235735  .00002394  00000+0  12329-2 0  9991",
        "tle_line2": "2 30475  98.7879  27.5956 0042354 292.6673  97.1399 14.15676106969421"
      },
      "geometry": {
        "type": "Point",
        "coordinates": [
          -146.4003303267903,
          30.435479488218082
        ]
      }
    },
    {
      "type": "Feature",
      "properties": {
        "norad_id": 30476,
        "name": "FENGYUN 1C DEB",
        "group": "fengyun-1c-debris",
        "lat": -80.83436055079449,
        "lon": 119.08569918149439,
        "alt_km": 801.5339888753169,
        "timestamp": "2025-12-12T20:43:07.311706+00:00",
        "meta_object_name": "FENGYUN 1C DEB",
        "meta_object_id": "1999-025AGP",
        "meta_epoch": "2025-12-12T01:00:03.500352",
        "meta_mean_motion": 14.20903451,
        "meta_eccentricity": 0.0044929,
        "meta_inclination": 99.1253,
        "meta_ra_of_asc_node": 23.2137,
        "meta_arg_of_pericenter": 301.55,
        "meta_mean_anomaly": 87.6869,
        "meta_ephemeris_type": 0,
        "meta_classification_type": "U",
        "meta_norad_cat_id": 30476,
        "meta_element_set_no": 999,
        "meta_rev_at_epoch": 96835,
        "meta_bstar": 0.0021956,
        "meta_mean_motion_dot": 4.755e-05,
        "meta_mean_motion_ddot": 0,
        "tle_line1": "1 30476U 99025AGP 25346.04170718  .00004755  00000+0  21956-2 0  9998",
        "tle_line2": "2 30476  99.1253  23.2137 0044929 301.5500  87.6869 14.20903451968355"
      },
      "geometry": {
        "type": "Point",
        "coordinates": [
          119.08569918149439,
          -80.83436055079449
        ]
      }
    },
    {
      "type": "Feature",
      "properties": {
        "norad_id": 30477,
        "name": "FENGYUN 1C DEB",
        "group": "fengyun-1c-debris",
        "lat": -49.71415346459142,
        "lon": -121.41373150642522,
        "alt_km": 943.2536435319753,
        "timestamp": "2025-12-12T20:43:07.311716+00:00",
        "meta_object_name": "FENGYUN 1C DEB",
        "meta_object_id": "1999-025AGQ",
        "meta_epoch": "2025-12-11T17:08:10.729248",
        "meta_mean_motion": 13.23813489,
        "meta_eccentricity": 0.04329342,
        "meta_inclination": 99.4247,
        "meta_ra_of_asc_node": 68.8437,
        "meta_arg_of_pericenter": 279.4465,
        "meta_mean_anomaly": 240.2776,
        "meta_ephemeris_type": 0,
        "meta_classification_type": "U",
        "meta_norad_cat_id": 30477,
        "meta_element_set_no": 999,
        "meta_rev_at_epoch": 90705,
        "meta_bstar": 0.003957748,
        "meta_mean_motion_dot": 2.735e-05,
        "meta_mean_motion_ddot": 0,
        "tle_line1": "1 30477U 99025AGQ 25345.71401307  .00002735  00000+0  39577-2 0  9997",
        "tle_line2": "2 30477  99.4247  68.8437 0432934 279.4465 240.2776 13.23813489907057"
      },
      "geometry": {
        "type": "Point",
        "coordinates": [
          -121.41373150642522,
          -49.71415346459142
        ]
      }
    }
  ]
}